[{"OBJECT_NAME":"TK-2","OBJECT_ID":"2022-031A","EPOCH":"2026-03-09T22:51:17.143200","MEAN_MOTION":15.02943491,"ECCENTRICITY":0.00164117,"INCLINATION":97.8366,"RA_OF_ASC_NODE":263.9365,"ARG_OF_PERICENTER":100.3205,"MEAN_ANOMALY":259.9871,"EPHEMERIS_TYPE":0,"CLASSIFICATION_TYPE":"U","NORAD_CAT_ID":52150,"ELEMENT_SET_NO":999,"REV_AT_EPOCH":21555,"BSTAR":0.00040164474,"MEAN_MOTION_DOT":5.349e-5,"MEAN_MOTION_DDOT":0},{"OBJECT_NAME":"STARLINK-5496","OBJECT_ID":"2023-083L","EPOCH":"2026-03-08T02:50:39.079104","MEAN_MOTION":15.02537731,"ECCENTRICITY":0.00013242,"INCLINATION":43.004,"RA_OF_ASC_NODE":90.3496,"ARG_OF_PERICENTER":265.0186,"MEAN_ANOMALY":95.0505,"EPHEMERIS_TYPE":0,"CLASSIFICATION_TYPE":"U","NORAD_CAT_ID":56886,"ELEMENT_SET_NO":999,"REV_AT_EPOCH":15143,"BSTAR":7.0957663e-5,"MEAN_MOTION_DOT":7.55e-6,"MEAN_MOTION_DDOT":0}]
